start=new Date('2021-09-16T00:00:00.000Z').valueOf();
sats=[{"APOAPSIS":"548.307","RCS_SIZE":"LARGE","ARG_OF_PERICENTER":"107.0723","ELEMENT_SET_NO":"999","BSTAR":"-0.00003259800000","TLE_LINE1":"1 47910U 21021BC  21258.70860733 -.00000767  00000-0 -32598-4 0  9992","PERIOD":"95.592","COUNTRY_CODE":"US","EPHEMERIS_TYPE":"0","PERIAPSIS":"546.148","GP_ID":"184760781","MEAN_ANOMALY":"253.0437","REF_FRAME":"TEME","MEAN_MOTION_DOT":"-0.00000767","MEAN_ELEMENT_THEORY":"SGP4","NORAD_CAT_ID":"47910","MEAN_MOTION":"15.06395362","TIME_SYSTEM":"UTC","INCLINATION":"53.0555","FILE":"3116341","EPOCH":"2021-09-15T17:00:23.673312","OBJECT_TYPE":"PAYLOAD","DECAY_DATE":null,"OBJECT_ID":"2021-021BC","MEAN_MOTION_DDOT":"0.0000000000000","SITE":"AFETR","CENTER_NAME":"EARTH","TLE_LINE2":"2 47910  53.0555  55.8065 0001559 107.0723 253.0437 15.06395362 29134","REV_AT_EPOCH":"2913","SEMIMAJOR_AXIS":"6925.363","ECCENTRICITY":"0.00015590","LAUNCH_DATE":"2021-03-14","RA_OF_ASC_NODE":"55.8065","CLASSIFICATION_TYPE":"U","OBJECT_NAME":"STARLINK-2370"},{"EPHEMERIS_TYPE":"0","PERIAPSIS":"545.895","REF_FRAME":"TEME","GP_ID":"184788648","MEAN_ANOMALY":"263.9880","MEAN_MOTION_DOT":"-0.00005076","MEAN_ELEMENT_THEORY":"SGP4","NORAD_CAT_ID":"47911","MEAN_MOTION":"15.06429039","TIME_SYSTEM":"UTC","INCLINATION":"53.0593","FILE":"3116597","EPOCH":"2021-09-15T18:25:57.565632","APOAPSIS":"548.354","RCS_SIZE":"LARGE","ARG_OF_PERICENTER":"96.1311","ELEMENT_SET_NO":"999","BSTAR":"-0.00032187000000","TLE_LINE1":"1 47911U 21021BD  21258.76802738 -.00005076  00000-0 -32187-3 0  9991","PERIOD":"95.590","COUNTRY_CODE":"US","SITE":"AFETR","CENTER_NAME":"EARTH","TLE_LINE2":"2 47911  53.0593  70.5458 0001776  96.1311 263.9880 15.06429039 29253","REV_AT_EPOCH":"2925","SEMIMAJOR_AXIS":"6925.260","ECCENTRICITY":"0.00017760","LAUNCH_DATE":"2021-03-14","RA_OF_ASC_NODE":"70.5458","CLASSIFICATION_TYPE":"U","OBJECT_NAME":"STARLINK-2371","OBJECT_TYPE":"PAYLOAD","OBJECT_ID":"2021-021BD","DECAY_DATE":null,"MEAN_MOTION_DDOT":"0.0000000000000"},{"OBJECT_TYPE":"PAYLOAD","MEAN_MOTION_DDOT":"0.0000000000000","DECAY_DATE":null,"OBJECT_ID":"2021-021BE","TLE_LINE2":"2 47912  53.0521  55.8632 0001704 113.9957 246.1210 15.06391809 29455","SITE":"AFETR","CENTER_NAME":"EARTH","SEMIMAJOR_AXIS":"6925.374","REV_AT_EPOCH":"2945","RA_OF_ASC_NODE":"55.8632","LAUNCH_DATE":"2021-03-14","ECCENTRICITY":"0.00017040","OBJECT_NAME":"STARLINK-2372","CLASSIFICATION_TYPE":"U","APOAPSIS":"548.419","RCS_SIZE":"LARGE","ELEMENT_SET_NO":"999","BSTAR":"0.00009117600000","ARG_OF_PERICENTER":"113.9957","PERIOD":"95.593","TLE_LINE1":"1 47912U 21021BE  21258.70217892  .00001076  00000-0  91176-4 0  9995","COUNTRY_CODE":"US","MEAN_ANOMALY":"246.1210","GP_ID":"184787399","REF_FRAME":"TEME","EPHEMERIS_TYPE":"0","PERIAPSIS":"546.059","MEAN_MOTION_DOT":"0.00001076","MEAN_ELEMENT_THEORY":"SGP4","FILE":"3116597","NORAD_CAT_ID":"47912","TIME_SYSTEM":"UTC","MEAN_MOTION":"15.06391809","INCLINATION":"53.0521","EPOCH":"2021-09-15T16:51:08.258688"},{"APOAPSIS":"548.591","RCS_SIZE":"LARGE","ELEMENT_SET_NO":"999","BSTAR":"0.00010652000000","ARG_OF_PERICENTER":"101.8279","COUNTRY_CODE":"US","TLE_LINE1":"1 47913U 21021BF  21258.86249084  .00001305  00000-0  10652-3 0  9995","PERIOD":"95.592","GP_ID":"184788149","REF_FRAME":"TEME","MEAN_ANOMALY":"258.2932","EPHEMERIS_TYPE":"0","PERIAPSIS":"545.841","MEAN_MOTION_DOT":"0.00001305","MEAN_ELEMENT_THEORY":"SGP4","FILE":"3116597","NORAD_CAT_ID":"47913","TIME_SYSTEM":"UTC","MEAN_MOTION":"15.06399251","INCLINATION":"53.0573","EPOCH":"2021-09-15T20:41:59.208576","OBJECT_TYPE":"PAYLOAD","MEAN_MOTION_DDOT":"0.0000000000000","DECAY_DATE":null,"OBJECT_ID":"2021-021BF","TLE_LINE2":"2 47913  53.0573  65.1211 0001985 101.8279 258.2932 15.06399251 29504","SITE":"AFETR","CENTER_NAME":"EARTH","SEMIMAJOR_AXIS":"6925.351","REV_AT_EPOCH":"2950","LAUNCH_DATE":"2021-03-14","RA_OF_ASC_NODE":"65.1211","ECCENTRICITY":"0.00019850","OBJECT_NAME":"STARLINK-2374","CLASSIFICATION_TYPE":"U"},{"EPOCH":"2021-09-15T20:38:02.906304","FILE":"3116597","INCLINATION":"53.0573","TIME_SYSTEM":"UTC","NORAD_CAT_ID":"47914","MEAN_MOTION":"15.06387312","MEAN_ELEMENT_THEORY":"SGP4","MEAN_MOTION_DOT":"-0.00001373","GP_ID":"184788901","REF_FRAME":"TEME","MEAN_ANOMALY":"261.5197","PERIAPSIS":"545.873","EPHEMERIS_TYPE":"0","COUNTRY_CODE":"US","TLE_LINE1":"1 47914U 21021BG  21258.85975586 -.00001373  00000-0 -73315-4 0  9991","PERIOD":"95.593","BSTAR":"-0.00007331500000","ELEMENT_SET_NO":"999","ARG_OF_PERICENTER":"98.6018","RCS_SIZE":"LARGE","APOAPSIS":"548.632","OBJECT_NAME":"STARLINK-2375","CLASSIFICATION_TYPE":"U","LAUNCH_DATE":"2021-03-14","RA_OF_ASC_NODE":"65.1321","ECCENTRICITY":"0.00019920","SEMIMAJOR_AXIS":"6925.387","REV_AT_EPOCH":"2949","TLE_LINE2":"2 47914  53.0573  65.1321 0001992  98.6018 261.5197 15.06387312 29492","CENTER_NAME":"EARTH","SITE":"AFETR","MEAN_MOTION_DDOT":"0.0000000000000","DECAY_DATE":null,"OBJECT_ID":"2021-021BG","OBJECT_TYPE":"PAYLOAD"},{"COUNTRY_CODE":"US","TLE_LINE1":"1 47915U 21021BH  21258.72567863  .00000681  00000-0  64653-4 0  9997","PERIOD":"95.593","ELEMENT_SET_NO":"999","BSTAR":"0.00006465300000","ARG_OF_PERICENTER":"123.2531","RCS_SIZE":"LARGE","APOAPSIS":"548.284","EPOCH":"2021-09-15T17:24:58.633632","FILE":"3116597","NORAD_CAT_ID":"47915","MEAN_MOTION":"15.06391884","TIME_SYSTEM":"UTC","INCLINATION":"53.0553","MEAN_MOTION_DOT":"0.00000681","MEAN_ELEMENT_THEORY":"SGP4","GP_ID":"184789149","REF_FRAME":"TEME","MEAN_ANOMALY":"236.8603","EPHEMERIS_TYPE":"0","PERIAPSIS":"546.193","MEAN_MOTION_DDOT":"0.0000000000000","OBJECT_ID":"2021-021BH","DECAY_DATE":null,"OBJECT_TYPE":"PAYLOAD","OBJECT_NAME":"STARLINK-2376","CLASSIFICATION_TYPE":"U","LAUNCH_DATE":"2021-03-14","RA_OF_ASC_NODE":"60.6986","ECCENTRICITY":"0.00015100","REV_AT_EPOCH":"2955","SEMIMAJOR_AXIS":"6925.373","TLE_LINE2":"2 47915  53.0553  60.6986 0001510 123.2531 236.8603 15.06391884 29552","SITE":"AFETR","CENTER_NAME":"EARTH"},{"NORAD_CAT_ID":"47916","TIME_SYSTEM":"UTC","MEAN_MOTION":"15.06394204","INCLINATION":"53.0543","FILE":"3116458","EPOCH":"2021-09-15T16:47:09.435264","EPHEMERIS_TYPE":"0","PERIAPSIS":"545.732","GP_ID":"184763571","REF_FRAME":"TEME","MEAN_ANOMALY":"263.7572","MEAN_MOTION_DOT":"-0.00000655","MEAN_ELEMENT_THEORY":"SGP4","ARG_OF_PERICENTER":"96.3664","ELEMENT_SET_NO":"999","BSTAR":"-0.00002507600000","TLE_LINE1":"1 47916U 21021BJ  21258.69941476 -.00000655  00000-0 -25076-4 0  9999","PERIOD":"95.593","COUNTRY_CODE":"US","APOAPSIS":"548.731","RCS_SIZE":"LARGE","ECCENTRICITY":"0.00021650","RA_OF_ASC_NODE":"45.8588","LAUNCH_DATE":"2021-03-14","OBJECT_NAME":"STARLINK-2378","CLASSIFICATION_TYPE":"U","SITE":"AFETR","CENTER_NAME":"EARTH","TLE_LINE2":"2 47916  53.0543  45.8588 0002165  96.3664 263.7572 15.06394204 29271","REV_AT_EPOCH":"2927","SEMIMAJOR_AXIS":"6925.366","OBJECT_ID":"2021-021BJ","DECAY_DATE":null,"MEAN_MOTION_DDOT":"0.0000000000000","OBJECT_TYPE":"PAYLOAD"},{"TLE_LINE2":"2 47917  53.0576  55.5285 0001324  98.5745 261.5394 15.06390529 29599","CENTER_NAME":"EARTH","SITE":"AFETR","SEMIMAJOR_AXIS":"6925.378","REV_AT_EPOCH":"2959","RA_OF_ASC_NODE":"55.5285","LAUNCH_DATE":"2021-03-14","ECCENTRICITY":"0.00013240","CLASSIFICATION_TYPE":"U","OBJECT_NAME":"STARLINK-2397","OBJECT_TYPE":"PAYLOAD","MEAN_MOTION_DDOT":"0.0000000000000","DECAY_DATE":null,"OBJECT_ID":"2021-021BK","MEAN_ANOMALY":"261.5394","GP_ID":"184787649","REF_FRAME":"TEME","PERIAPSIS":"546.326","EPHEMERIS_TYPE":"0","MEAN_ELEMENT_THEORY":"SGP4","MEAN_MOTION_DOT":"-0.00001207","FILE":"3116597","INCLINATION":"53.0576","NORAD_CAT_ID":"47917","MEAN_MOTION":"15.06390529","TIME_SYSTEM":"UTC","EPOCH":"2021-09-15T18:31:58.652832","APOAPSIS":"548.160","RCS_SIZE":"LARGE","BSTAR":"-0.00006218000000","ELEMENT_SET_NO":"999","ARG_OF_PERICENTER":"98.5745","TLE_LINE1":"1 47917U 21021BK  21258.77220663 -.00001207  00000-0 -62180-4 0  9998","COUNTRY_CODE":"US","PERIOD":"95.593"},{"OBJECT_TYPE":"PAYLOAD","DECAY_DATE":null,"OBJECT_ID":"2021-021BL","MEAN_MOTION_DDOT":"0.0000000000000","REV_AT_EPOCH":"2913","SEMIMAJOR_AXIS":"6925.361","SITE":"AFETR","CENTER_NAME":"EARTH","TLE_LINE2":"2 47918  53.0570  55.7892 0001574 106.3097 253.8065 15.06396006 29130","CLASSIFICATION_TYPE":"U","OBJECT_NAME":"STARLINK-2398","ECCENTRICITY":"0.00015740","LAUNCH_DATE":"2021-03-14","RA_OF_ASC_NODE":"55.7892","RCS_SIZE":"LARGE","APOAPSIS":"548.316","TLE_LINE1":"1 47918U 21021BL  21258.71322968 -.00000194  00000-0  58990-5 0  9992","PERIOD":"95.592","COUNTRY_CODE":"US","ARG_OF_PERICENTER":"106.3097","ELEMENT_SET_NO":"999","BSTAR":"0.00000589900000","MEAN_MOTION_DOT":"-0.00000194","MEAN_ELEMENT_THEORY":"SGP4","EPHEMERIS_TYPE":"0","PERIAPSIS":"546.136","GP_ID":"184763698","MEAN_ANOMALY":"253.8065","REF_FRAME":"TEME","EPOCH":"2021-09-15T17:07:03.044352","NORAD_CAT_ID":"47918","MEAN_MOTION":"15.06396006","TIME_SYSTEM":"UTC","INCLINATION":"53.0570","FILE":"3116484"},{"INCLINATION":"53.0549","NORAD_CAT_ID":"47919","TIME_SYSTEM":"UTC","MEAN_MOTION":"15.06391771","FILE":"3116597","EPOCH":"2021-09-15T18:20:02.866848","PERIAPSIS":"545.869","EPHEMERIS_TYPE":"0","GP_ID":"184788649","MEAN_ANOMALY":"264.0385","REF_FRAME":"TEME","MEAN_ELEMENT_THEORY":"SGP4","MEAN_MOTION_DOT":"-0.00000370","ARG_OF_PERICENTER":"96.0830","BSTAR":"-0.00000589730000","ELEMENT_SET_NO":"999","PERIOD":"95.593","TLE_LINE1":"1 47919U 21021BM  21258.76392207 -.00000370  00000-0 -58973-5 0  9999","COUNTRY_CODE":"US","APOAPSIS":"548.609","RCS_SIZE":"LARGE","ECCENTRICITY":"0.00019780","LAUNCH_DATE":"2021-03-14","RA_OF_ASC_NODE":"65.5648","OBJECT_NAME":"STARLINK-2405","CLASSIFICATION_TYPE":"U","CENTER_NAME":"EARTH","SITE":"AFETR","TLE_LINE2":"2 47919  53.0549  65.5648 0001978  96.0830 264.0385 15.06391771 29462","REV_AT_EPOCH":"2946","SEMIMAJOR_AXIS":"6925.374","DECAY_DATE":null,"OBJECT_ID":"2021-021BM","MEAN_MOTION_DDOT":"0.0000000000000","OBJECT_TYPE":"PAYLOAD"}];
